[{"OBJECT_NAME":"STARLINK-31037","OBJECT_ID":"2023-192F","EPOCH":"2026-03-09T06:48:14.961600","MEAN_MOTION":15.30193361,"ECCENTRICITY":0.00012531,"INCLINATION":53.1608,"RA_OF_ASC_NODE":64.6159,"ARG_OF_PERICENTER":93.7826,"MEAN_ANOMALY":266.3319,"EPHEMERIS_TYPE":0,"CLASSIFICATION_TYPE":"U","NORAD_CAT_ID":58536,"ELEMENT_SET_NO":999,"REV_AT_EPOCH":12592,"BSTAR":2.593482e-6,"MEAN_MOTION_DOT":-2.82e-6,"MEAN_MOTION_DDOT":0},{"OBJECT_NAME":"LYNK TOWER 6","OBJECT_ID":"2024-043AB","EPOCH":"2026-03-09T21:28:38.303328","MEAN_MOTION":15.29548678,"ECCENTRICITY":0.00097492,"INCLINATION":97.5426,"RA_OF_ASC_NODE":204.1954,"ARG_OF_PERICENTER":232.0253,"MEAN_ANOMALY":128.0107,"EPHEMERIS_TYPE":0,"CLASSIFICATION_TYPE":"U","NORAD_CAT_ID":59123,"ELEMENT_SET_NO":999,"REV_AT_EPOCH":11184,"BSTAR":0.00040142146,"MEAN_MOTION_DOT":0.0001144,"MEAN_MOTION_DDOT":0}]
